UNKNOWN                 
1 81865U          25333.43173211  .00001640  00000+0  13452-2 0  9993
2 81865  82.8057  38.9603 0062100  44.2679 331.8813 13.87960828606708
UNKNOWN                 
1 81893U          25333.42111978  .00001167  00000+0  12372-2 0  9999
2 81893 100.0464 315.9998 0020733 304.7998  55.1199 13.76646270602241
UNKNOWN                 
1 81899U          25332.09739320  .00001851  00000+0  43495-2 0  9994
2 81899 102.4142  71.2641 0181025 243.6122 114.6303 13.20128773577055
UNKNOWN                 
1 81921U          25332.03998940  .00001477  00000+0  62242-3 0  9995
2 81921  65.7076  86.5004 0846446 120.9074 247.7977 13.15123690 23854
UNKNOWN                 
1 81946U          25329.59972784  .00000095  00000+0  48631-3 0  9998
2 81946  66.4167 185.6165 0670122 359.7992  25.5407 12.42570023545759
UNKNOWN                 
1 81947U          25332.38855161  .00005024  00000+0  48577-3 0  9995
2 81947  66.0739 208.2122 0378542 151.7814 210.4387 14.52402788628939
UNKNOWN                 
1 81964U          25332.19971594  .00000296  00000+0  27400-3 0  9990
2 81964  66.5848 294.8908 0028887  98.7084 261.7269 13.95781151612010
UNKNOWN                 
1 81969U          25333.50204992  .00009765  00000+0  59011-3 0  9995
2 81969  86.6874 159.1789 0002832 204.5802 155.5302 15.10559313438177
UNKNOWN                 
1 81995U          25322.63127017  .00005393  00000+0  10285-2 0  9990
2 81995  65.7453 187.0666 0520105 308.8882  46.6873 14.03464410600847
UNKNOWN                 
1 82043U          25333.65807406  .00003037  00000+0  84208-3 0  9996
2 82043  97.9278 123.4519 0232712 122.7920 239.5917 14.32452500571977
UNKNOWN                 
1 82051U          25323.97480617  .00004561  00000+0  15257-2 0  9990
2 82051  98.7487  49.1391 0091549 326.8050  32.7411 14.35538138569144
UNKNOWN                 
1 82073U          25333.67765364  .00002291  00000+0  59328-3 0  9993
2 82073  97.7543  51.0366 0206787 327.8224  31.0481 14.38731148573244
