CCSDS_OMM_VERS = 2.0
CREATION_DATE  = 
ORIGINATOR     = 

OBJECT_NAME    = UNKNOWN
OBJECT_ID      = 
CENTER_NAME    = EARTH
REF_FRAME      = TEME
TIME_SYSTEM    = UTC
MEAN_ELEMENT_THEORY = SGP/SGP4

EPOCH          = 2025-11-29T10:21:41.654304
MEAN_MOTION    = 13.87960828
ECCENTRICITY   = .00621
INCLINATION    = 82.8057
RA_OF_ASC_NODE = 38.9603
ARG_OF_PERICENTER = 44.2679
MEAN_ANOMALY   = 331.8813

EPHEMERIS_TYPE = 0
CLASSIFICATION_TYPE = U
NORAD_CAT_ID   = 81865
ELEMENT_SET_NO = 999
REV_AT_EPOCH   = 60670
BSTAR          = .13452E-2
MEAN_MOTION_DOT = .164E-4
MEAN_MOTION_DDOT = 0

CCSDS_OMM_VERS = 2.0
CREATION_DATE  = 
ORIGINATOR     = 

OBJECT_NAME    = UNKNOWN
OBJECT_ID      = 
CENTER_NAME    = EARTH
REF_FRAME      = TEME
TIME_SYSTEM    = UTC
MEAN_ELEMENT_THEORY = SGP/SGP4

EPOCH          = 2025-11-29T10:06:24.748992
MEAN_MOTION    = 13.76646270
ECCENTRICITY   = .0020733
INCLINATION    = 100.0464
RA_OF_ASC_NODE = 315.9998
ARG_OF_PERICENTER = 304.7998
MEAN_ANOMALY   = 55.1199

EPHEMERIS_TYPE = 0
CLASSIFICATION_TYPE = U
NORAD_CAT_ID   = 81893
ELEMENT_SET_NO = 999
REV_AT_EPOCH   = 60224
BSTAR          = .12372E-2
MEAN_MOTION_DOT = .1167E-4
MEAN_MOTION_DDOT = 0

CCSDS_OMM_VERS = 2.0
CREATION_DATE  = 
ORIGINATOR     = 

OBJECT_NAME    = UNKNOWN
OBJECT_ID      = 
CENTER_NAME    = EARTH
REF_FRAME      = TEME
TIME_SYSTEM    = UTC
MEAN_ELEMENT_THEORY = SGP/SGP4

EPOCH          = 2025-11-28T02:20:14.772480
MEAN_MOTION    = 13.20128773
ECCENTRICITY   = .0181025
INCLINATION    = 102.4142
RA_OF_ASC_NODE = 71.2641
ARG_OF_PERICENTER = 243.6122
MEAN_ANOMALY   = 114.6303

EPHEMERIS_TYPE = 0
CLASSIFICATION_TYPE = U
NORAD_CAT_ID   = 81899
ELEMENT_SET_NO = 999
REV_AT_EPOCH   = 57705
BSTAR          = .43495E-2
MEAN_MOTION_DOT = .1851E-4
MEAN_MOTION_DDOT = 0

CCSDS_OMM_VERS = 2.0
CREATION_DATE  = 
ORIGINATOR     = 

OBJECT_NAME    = UNKNOWN
OBJECT_ID      = 
CENTER_NAME    = EARTH
REF_FRAME      = TEME
TIME_SYSTEM    = UTC
MEAN_ELEMENT_THEORY = SGP/SGP4

EPOCH          = 2025-11-28T00:57:35.084160
MEAN_MOTION    = 13.15123690
ECCENTRICITY   = .0846446
INCLINATION    = 65.7076
RA_OF_ASC_NODE = 86.5004
ARG_OF_PERICENTER = 120.9074
MEAN_ANOMALY   = 247.7977

EPHEMERIS_TYPE = 0
CLASSIFICATION_TYPE = U
NORAD_CAT_ID   = 81921
ELEMENT_SET_NO = 999
REV_AT_EPOCH   = 2385
BSTAR          = .62242E-3
MEAN_MOTION_DOT = .1477E-4
MEAN_MOTION_DDOT = 0

CCSDS_OMM_VERS = 2.0
CREATION_DATE  = 
ORIGINATOR     = 

OBJECT_NAME    = UNKNOWN
OBJECT_ID      = 
CENTER_NAME    = EARTH
REF_FRAME      = TEME
TIME_SYSTEM    = UTC
MEAN_ELEMENT_THEORY = SGP/SGP4

EPOCH          = 2025-11-25T14:23:36.485376
MEAN_MOTION    = 12.42570023
ECCENTRICITY   = .0670122
INCLINATION    = 66.4167
RA_OF_ASC_NODE = 185.6165
ARG_OF_PERICENTER = 359.7992
MEAN_ANOMALY   = 25.5407

EPHEMERIS_TYPE = 0
CLASSIFICATION_TYPE = U
NORAD_CAT_ID   = 81946
ELEMENT_SET_NO = 999
REV_AT_EPOCH   = 54575
BSTAR          = .48631E-3
MEAN_MOTION_DOT = .95E-6
MEAN_MOTION_DDOT = 0

CCSDS_OMM_VERS = 2.0
CREATION_DATE  = 
ORIGINATOR     = 

OBJECT_NAME    = UNKNOWN
OBJECT_ID      = 
CENTER_NAME    = EARTH
REF_FRAME      = TEME
TIME_SYSTEM    = UTC
MEAN_ELEMENT_THEORY = SGP/SGP4

EPOCH          = 2025-11-28T09:19:30.859104
MEAN_MOTION    = 14.52402788
ECCENTRICITY   = .0378542
INCLINATION    = 66.0739
RA_OF_ASC_NODE = 208.2122
ARG_OF_PERICENTER = 151.7814
MEAN_ANOMALY   = 210.4387

EPHEMERIS_TYPE = 0
CLASSIFICATION_TYPE = U
NORAD_CAT_ID   = 81947
ELEMENT_SET_NO = 999
REV_AT_EPOCH   = 62893
BSTAR          = .48577E-3
MEAN_MOTION_DOT = .5024E-4
MEAN_MOTION_DDOT = 0

CCSDS_OMM_VERS = 2.0
CREATION_DATE  = 
ORIGINATOR     = 

OBJECT_NAME    = UNKNOWN
OBJECT_ID      = 
CENTER_NAME    = EARTH
REF_FRAME      = TEME
TIME_SYSTEM    = UTC
MEAN_ELEMENT_THEORY = SGP/SGP4

EPOCH          = 2025-11-28T04:47:35.457216
MEAN_MOTION    = 13.95781151
ECCENTRICITY   = .0028887
INCLINATION    = 66.5848
RA_OF_ASC_NODE = 294.8908
ARG_OF_PERICENTER = 98.7084
MEAN_ANOMALY   = 261.7269

EPHEMERIS_TYPE = 0
CLASSIFICATION_TYPE = U
NORAD_CAT_ID   = 81964
ELEMENT_SET_NO = 999
REV_AT_EPOCH   = 61201
BSTAR          = .274E-3
MEAN_MOTION_DOT = .296E-5
MEAN_MOTION_DDOT = 0

CCSDS_OMM_VERS = 2.0
CREATION_DATE  = 
ORIGINATOR     = 

OBJECT_NAME    = UNKNOWN
OBJECT_ID      = 
CENTER_NAME    = EARTH
REF_FRAME      = TEME
TIME_SYSTEM    = UTC
MEAN_ELEMENT_THEORY = SGP/SGP4

EPOCH          = 2025-11-29T12:02:57.113088
MEAN_MOTION    = 15.10559313
ECCENTRICITY   = .0002832
INCLINATION    = 86.6874
RA_OF_ASC_NODE = 159.1789
ARG_OF_PERICENTER = 204.5802
MEAN_ANOMALY   = 155.5302

EPHEMERIS_TYPE = 0
CLASSIFICATION_TYPE = U
NORAD_CAT_ID   = 81969
ELEMENT_SET_NO = 999
REV_AT_EPOCH   = 43817
BSTAR          = .59011E-3
MEAN_MOTION_DOT = .9765E-4
MEAN_MOTION_DDOT = 0

CCSDS_OMM_VERS = 2.0
CREATION_DATE  = 
ORIGINATOR     = 

OBJECT_NAME    = UNKNOWN
OBJECT_ID      = 
CENTER_NAME    = EARTH
REF_FRAME      = TEME
TIME_SYSTEM    = UTC
MEAN_ELEMENT_THEORY = SGP/SGP4

EPOCH          = 2025-11-18T15:09:01.742688
MEAN_MOTION    = 14.03464410
ECCENTRICITY   = .0520105
INCLINATION    = 65.7453
RA_OF_ASC_NODE = 187.0666
ARG_OF_PERICENTER = 308.8882
MEAN_ANOMALY   = 46.6873

EPHEMERIS_TYPE = 0
CLASSIFICATION_TYPE = U
NORAD_CAT_ID   = 81995
ELEMENT_SET_NO = 999
REV_AT_EPOCH   = 60084
BSTAR          = .10285E-2
MEAN_MOTION_DOT = .5393E-4
MEAN_MOTION_DDOT = 0

CCSDS_OMM_VERS = 2.0
CREATION_DATE  = 
ORIGINATOR     = 

OBJECT_NAME    = UNKNOWN
OBJECT_ID      = 
CENTER_NAME    = EARTH
REF_FRAME      = TEME
TIME_SYSTEM    = UTC
MEAN_ELEMENT_THEORY = SGP/SGP4

EPOCH          = 2025-11-29T15:47:37.598784
MEAN_MOTION    = 14.32452500
ECCENTRICITY   = .0232712
INCLINATION    = 97.9278
RA_OF_ASC_NODE = 123.4519
ARG_OF_PERICENTER = 122.7920
MEAN_ANOMALY   = 239.5917

EPHEMERIS_TYPE = 0
CLASSIFICATION_TYPE = U
NORAD_CAT_ID   = 82043
ELEMENT_SET_NO = 999
REV_AT_EPOCH   = 57197
BSTAR          = .84208E-3
MEAN_MOTION_DOT = .3037E-4
MEAN_MOTION_DDOT = 0

CCSDS_OMM_VERS = 2.0
CREATION_DATE  = 
ORIGINATOR     = 

OBJECT_NAME    = UNKNOWN
OBJECT_ID      = 
CENTER_NAME    = EARTH
REF_FRAME      = TEME
TIME_SYSTEM    = UTC
MEAN_ELEMENT_THEORY = SGP/SGP4

EPOCH          = 2025-11-19T23:23:43.253088
MEAN_MOTION    = 14.35538138
ECCENTRICITY   = .0091549
INCLINATION    = 98.7487
RA_OF_ASC_NODE = 49.1391
ARG_OF_PERICENTER = 326.8050
MEAN_ANOMALY   = 32.7411

EPHEMERIS_TYPE = 0
CLASSIFICATION_TYPE = U
NORAD_CAT_ID   = 82051
ELEMENT_SET_NO = 999
REV_AT_EPOCH   = 56914
BSTAR          = .15257E-2
MEAN_MOTION_DOT = .4561E-4
MEAN_MOTION_DDOT = 0

CCSDS_OMM_VERS = 2.0
CREATION_DATE  = 
ORIGINATOR     = 

OBJECT_NAME    = UNKNOWN
OBJECT_ID      = 
CENTER_NAME    = EARTH
REF_FRAME      = TEME
TIME_SYSTEM    = UTC
MEAN_ELEMENT_THEORY = SGP/SGP4

EPOCH          = 2025-11-29T16:15:49.274496
MEAN_MOTION    = 14.38731148
ECCENTRICITY   = .0206787
INCLINATION    = 97.7543
RA_OF_ASC_NODE = 51.0366
ARG_OF_PERICENTER = 327.8224
MEAN_ANOMALY   = 31.0481

EPHEMERIS_TYPE = 0
CLASSIFICATION_TYPE = U
NORAD_CAT_ID   = 82073
ELEMENT_SET_NO = 999
REV_AT_EPOCH   = 57324
BSTAR          = .59328E-3
MEAN_MOTION_DOT = .2291E-4
MEAN_MOTION_DDOT = 0

